[{"OBJECT_NAME":"EOSSAT-1","OBJECT_ID":"2023-001AW","EPOCH":"2026-03-09T17:40:07.010400","MEAN_MOTION":15.32339828,"ECCENTRICITY":0.00112629,"INCLINATION":97.3357,"RA_OF_ASC_NODE":130.2294,"ARG_OF_PERICENTER":110.3168,"MEAN_ANOMALY":249.9285,"EPHEMERIS_TYPE":0,"CLASSIFICATION_TYPE":"U","NORAD_CAT_ID":55053,"ELEMENT_SET_NO":999,"REV_AT_EPOCH":17668,"BSTAR":0.00024844399,"MEAN_MOTION_DOT":7.695e-5,"MEAN_MOTION_DDOT":0},{"OBJECT_NAME":"STARLINK-32667","OBJECT_ID":"2024-229K","EPOCH":"2026-03-09T22:29:45.198816","MEAN_MOTION":15.275991,"ECCENTRICITY":0.00027065,"INCLINATION":43.0058,"RA_OF_ASC_NODE":268.938,"ARG_OF_PERICENTER":255.6074,"MEAN_ANOMALY":104.4478,"EPHEMERIS_TYPE":0,"CLASSIFICATION_TYPE":"U","NORAD_CAT_ID":62201,"ELEMENT_SET_NO":999,"REV_AT_EPOCH":7060,"BSTAR":0.0013549994,"MEAN_MOTION_DOT":0.00037237,"MEAN_MOTION_DDOT":0}]
